#aV2008 11  3  0  0   .00000000      96 DD+AD WGS84 FIT  NGA
## 1504  86400.00000000   900.00000000 54773  .0000000000000
+   31     2  3  4  5  6  7  8  9 10 11 12 13 14 15 16 17 18
+         19 20 21 22 23 24 25 26 27 28 29 30 31 32  0  0  0
+          0  0  0  0  0  0  0  0  0  0  0  0  0  0  0  0  0
+          0  0  0  0  0  0  0  0  0  0  0  0  0  0  0  0  0
+          0  0  0  0  0  0  0  0  0  0  0  0  0  0  0  0  0
++         0  0  0  0  0  0  0  0  0  0  0  0  0  0  0  0  0
++         0  0  0  0  0  0  0  0  0  0  0  0  0  0  0  0  0
++         0  0  0  0  0  0  0  0  0  0  0  0  0  0  0  0  0
++         0  0  0  0  0  0  0  0  0  0  0  0  0  0  0  0  0
++         0  0  0  0  0  0  0  0  0  0  0  0  0  0  0  0  0
%c cc cc ccc ccc cccc cccc cccc cccc ccccc ccccc ccccc ccccc
%c cc cc ccc ccc cccc cccc cccc cccc ccccc ccccc ccccc ccccc
%f  0.0000000  0.000000000  0.00000000000  0.000000000000000
%f  0.0000000  0.000000000  0.00000000000  0.000000000000000
%i    0    0    0    0      0      0      0      0         0
%i    0    0    0    0      0      0      0      0         0
/*      NGA, ST. LOUIS,MO.                                  
/*   EPHEMERIS COMPUTED FROM  3 DAYS OF DATA                
/* CCCCCCCCCCCCCCCCCCCCCCCCCCCCCCCCCCCCCCCCCCCCCCCCCCCCCCCCC
/* CCCCCCCCCCCCCCCCCCCCCCCCCCCCCCCCCCCCCCCCCCCCCCCCCCCCCCCCC
*  2008 11  3  3 30   .00000000                                                 
P  2  21003.892673 -10350.728269 -12297.968232    175.772942                    
V  2  -8037.389112  13701.755794 -25905.253555      -.025993                    
P  3 -15316.975088   4418.397491  20973.722982    305.812970                    
V  3 -11106.978482 -25080.154048  -2434.811023       .052535                    
P  4  17150.698494   3062.667703 -20254.616142   -220.221871                    
V  4 -16442.095495  19436.376290 -10675.157606      -.119674                    
P  5   4069.406499 -15294.662059 -21617.652046   -359.820079                    
V  5  26614.556802   3412.677166   2755.758191      -.353982                    
P  6 -16655.553639   -414.985055  20872.389348    150.012792                    
V  6  -8387.167725 -24820.122423  -7242.006627      -.060397                    
P  7  -1291.065299  19727.466937  17662.641890     22.882429                    
V  7 -16277.927011  15626.452722 -18720.233531       .003561                    
P  8  10229.407608  10454.556375  22096.091128   -176.545714                    
V  8 -20142.976335  19678.068428   -468.014265      -.015176                    
P  9  13746.202465 -22140.602997  -5415.777082     22.987272                    
V  9   5701.678668  -3149.433682  31141.768805       .019183                    
P 10  24149.113808  -2198.395397  11078.353918     -6.797780                    
V 10  13264.394692   5428.877484 -27162.595099      -.004413                    
P 11  -9872.601359  24060.987199  -4574.984660     16.479910                    
V 11  -7344.577717   2326.633045  29580.195724      -.008197                    
P 12  10020.999255 -12705.902426 -20973.108312   -342.928327                    
V 12  26036.105182   6410.179929   8619.696808       .022061                    
P 13   4745.078815  25937.342537  -3314.073848    275.869676                    
V 13  -2676.800503  -3475.504281 -32138.898538       .009960                    
P 14 -14818.485438 -16344.859227 -14759.013755   -199.400037                    
V 14  -3886.470355 -18492.006105  24078.627354       .047329                    
P 15   9660.534008 -14893.938530  19779.399856   -204.587976                    
V 15   9205.874980  23347.327061  13129.859839      -.062862                    
P 16 -25974.561266  -1934.708440   5806.694956     97.676308                    
V 16  -6525.274201  -3948.654578 -30604.194115      -.023309                    
P 17  15071.978020  17569.803676 -13136.839935     40.047424                    
V 17   2855.029400  16583.509873  25197.402338       .004178                    
P 18 -11986.256255 -16155.969475  17730.501118   -116.898436                    
V 18  21763.059472   3696.357923  17931.749709       .038895                    
P 19  -9968.107572  15564.462724  19062.708166     35.629995                    
V 19  -7279.181293 -23073.423089  15296.783540      -.000743                    
P 20  -6143.362478  14599.141773 -21431.905060    100.139245                    
V 20 -26450.308343  -5481.637258   3908.611743      -.010751                    
P 21  -4306.897260 -16964.156311  20027.077331     44.134020                    
V 21  18420.793538 -17300.175120 -11426.770638      -.015599                    
P 22 -22228.459270 -11992.465398   8479.675995    209.771180                    
V 22  10975.468230   -340.505961  28787.729753      -.002378                    
P 23  -1383.340882  23365.105232 -12341.825273    378.810324                    
V 23  -6914.286486 -14245.724337 -26564.394951       .011784                    
P 24  10453.287083 -21883.611240  11296.639173    138.074288                    
V 24  11603.602551  -8253.193953 -26814.571315       .029689                    
P 25  -6152.556924  22857.584584  12579.554340     -7.637584                    
V 25 -10675.223893  11170.767524 -26094.361075       .318845                    
P 26  12225.168944  -8387.514624  21470.402519     10.685542                    
V 26   8048.940911  27309.107224   6456.814757       .046240                    
P 27   2900.169045  18102.298399  19862.755173    229.912173                    
V 27 -15618.900022  17941.209914 -14687.378126       .028663                    
P 28  21294.659174  12620.098322  10470.387611    -23.389082                    
V 28 -12719.605698   -995.101377  27814.247735      -.001953                    
P 29  -3739.965218 -25724.180320  -5448.428606    -31.817976                    
V 29   4663.035949   5955.032051 -30692.193702       .017250                    
P 30  -5703.337313 -16036.891099 -20769.491562    105.618907                    
V 30  25367.379599   3411.126542  -9686.439136       .020629                    
P 31 -18071.241590    391.118467 -19288.903491    -36.227452                    
V 31  15713.977166 -19324.178433 -14848.745579      -.022095                    
P 32 -14327.751518   9802.777790 -19613.081747    315.098470                    
V 32 -24405.015548  -8745.820776  13372.736868      -.009779                    
EOF
